[{"OBJECT_NAME":"STARLINK-30437","OBJECT_ID":"2023-156J","EPOCH":"2024-06-13T04:49:57.124704","MEAN_MOTION":15.28001877,"ECCENTRICITY":0.0001416,"INCLINATION":53.17,"RA_OF_ASC_NODE":152.4994,"ARG_OF_PERICENTER":76.722,"MEAN_ANOMALY":283.3937,"EPHEMERIS_TYPE":0,"CLASSIFICATION_TYPE":"U","NORAD_CAT_ID":58036,"ELEMENT_SET_NO":999,"REV_AT_EPOCH":3896,"BSTAR":-0.00020035,"MEAN_MOTION_DOT":-5.893e-5,"MEAN_MOTION_DDOT":0},{"OBJECT_NAME":"STARLINK-30533","OBJECT_ID":"2023-156K","EPOCH":"2024-06-13T03:59:07.979712","MEAN_MOTION":15.04919827,"ECCENTRICITY":0.0001531,"INCLINATION":53.1631,"RA_OF_ASC_NODE":165.5516,"ARG_OF_PERICENTER":90.2376,"MEAN_ANOMALY":269.879,"EPHEMERIS_TYPE":0,"CLASSIFICATION_TYPE":"U","NORAD_CAT_ID":58037,"ELEMENT_SET_NO":999,"REV_AT_EPOCH":3888,"BSTAR":0.00010973,"MEAN_MOTION_DOT":1.294e-5,"MEAN_MOTION_DDOT":0},{"OBJECT_NAME":"STARLINK-30560","OBJECT_ID":"2023-156L","EPOCH":"2024-06-13T05:43:21.442368","MEAN_MOTION":15.28027468,"ECCENTRICITY":0.0001563,"INCLINATION":53.1709,"RA_OF_ASC_NODE":152.738,"ARG_OF_PERICENTER":92.0697,"MEAN_ANOMALY":268.0482,"EPHEMERIS_TYPE":0,"CLASSIFICATION_TYPE":"U","NORAD_CAT_ID":58038,"ELEMENT_SET_NO":999,"REV_AT_EPOCH":3881,"BSTAR":6.9539e-5,"MEAN_MOTION_DOT":1.576e-5,"MEAN_MOTION_DDOT":0},{"OBJECT_NAME":"STARLINK-30559","OBJECT_ID":"2023-156M","EPOCH":"2024-06-13T04:19:11.672544","MEAN_MOTION":15.04921771,"ECCENTRICITY":0.0001058,"INCLINATION":53.1633,"RA_OF_ASC_NODE":165.651,"ARG_OF_PERICENTER":76.5832,"MEAN_ANOMALY":283.5275,"EPHEMERIS_TYPE":0,"CLASSIFICATION_TYPE":"U","NORAD_CAT_ID":58039,"ELEMENT_SET_NO":999,"REV_AT_EPOCH":3888,"BSTAR":3.2048e-5,"MEAN_MOTION_DOT":1.82e-6,"MEAN_MOTION_DDOT":0},{"OBJECT_NAME":"STARLINK-30555","OBJECT_ID":"2023-156N","EPOCH":"2024-06-13T04:14:34.531584","MEAN_MOTION":15.04932072,"ECCENTRICITY":0.0001353,"INCLINATION":53.1633,"RA_OF_ASC_NODE":165.6348,"ARG_OF_PERICENTER":82.1547,"MEAN_ANOMALY":277.9597,"EPHEMERIS_TYPE":0,"CLASSIFICATION_TYPE":"U","NORAD_CAT_ID":58040,"ELEMENT_SET_NO":999,"REV_AT_EPOCH":3888,"BSTAR":0.00014051,"MEAN_MOTION_DOT":1.735e-5,"MEAN_MOTION_DDOT":0},{"OBJECT_NAME":"STARLINK-30542","OBJECT_ID":"2023-156P","EPOCH":"2024-06-13T04:36:02.668320","MEAN_MOTION":15.28014057,"ECCENTRICITY":0.0001768,"INCLINATION":53.1208,"RA_OF_ASC_NODE":152.6671,"ARG_OF_PERICENTER":115.6489,"MEAN_ANOMALY":244.4693,"EPHEMERIS_TYPE":0,"CLASSIFICATION_TYPE":"U","NORAD_CAT_ID":58041,"ELEMENT_SET_NO":999,"REV_AT_EPOCH":3906,"BSTAR":0.00032549,"MEAN_MOTION_DOT":8.673e-5,"MEAN_MOTION_DDOT":0},{"OBJECT_NAME":"STARLINK-30563","OBJECT_ID":"2023-156Q","EPOCH":"2024-06-12T17:02:28.757184","MEAN_MOTION":15.28021165,"ECCENTRICITY":0.0001445,"INCLINATION":53.1529,"RA_OF_ASC_NODE":154.2457,"ARG_OF_PERICENTER":86.3525,"MEAN_ANOMALY":273.764,"EPHEMERIS_TYPE":0,"CLASSIFICATION_TYPE":"U","NORAD_CAT_ID":58042,"ELEMENT_SET_NO":999,"REV_AT_EPOCH":3900,"BSTAR":7.557e-5,"MEAN_MOTION_DOT":1.743e-5,"MEAN_MOTION_DDOT":0},{"OBJECT_NAME":"STARLINK-30564","OBJECT_ID":"2023-156R","EPOCH":"2024-06-13T05:02:08.921472","MEAN_MOTION":15.28032867,"ECCENTRICITY":0.0001671,"INCLINATION":53.1593,"RA_OF_ASC_NODE":150.9696,"ARG_OF_PERICENTER":138.6864,"MEAN_ANOMALY":221.4263,"EPHEMERIS_TYPE":0,"CLASSIFICATION_TYPE":"U","NORAD_CAT_ID":58043,"ELEMENT_SET_NO":999,"REV_AT_EPOCH":3909,"BSTAR":-8.4333e-5,"MEAN_MOTION_DOT":-2.687e-5,"MEAN_MOTION_DDOT":0},{"OBJECT_NAME":"STARLINK-30547","OBJECT_ID":"2023-156S","EPOCH":"2024-06-12T17:42:01.728000","MEAN_MOTION":15.04924432,"ECCENTRICITY":8.38e-5,"INCLINATION":53.1657,"RA_OF_ASC_NODE":167.1142,"ARG_OF_PERICENTER":83.1999,"MEAN_ANOMALY":276.9086,"EPHEMERIS_TYPE":0,"CLASSIFICATION_TYPE":"U","NORAD_CAT_ID":58044,"ELEMENT_SET_NO":999,"REV_AT_EPOCH":3882,"BSTAR":5.2266e-5,"MEAN_MOTION_DOT":4.71e-6,"MEAN_MOTION_DDOT":0},{"OBJECT_NAME":"STARLINK-30550","OBJECT_ID":"2023-156T","EPOCH":"2024-06-13T03:18:52.693632","MEAN_MOTION":15.4285592,"ECCENTRICITY":0.0001074,"INCLINATION":53.1482,"RA_OF_ASC_NODE":78.6745,"ARG_OF_PERICENTER":128.1561,"MEAN_ANOMALY":231.9542,"EPHEMERIS_TYPE":0,"CLASSIFICATION_TYPE":"U","NORAD_CAT_ID":58045,"ELEMENT_SET_NO":999,"REV_AT_EPOCH":4007,"BSTAR":0.0001135,"MEAN_MOTION_DOT":4.644e-5,"MEAN_MOTION_DDOT":0},{"OBJECT_NAME":"STARLINK-30548","OBJECT_ID":"2023-156U","EPOCH":"2024-06-12T16:54:18.826848","MEAN_MOTION":15.0492949,"ECCENTRICITY":0.0001793,"INCLINATION":53.1625,"RA_OF_ASC_NODE":167.6632,"ARG_OF_PERICENTER":97.9822,"MEAN_ANOMALY":262.1371,"EPHEMERIS_TYPE":0,"CLASSIFICATION_TYPE":"U","NORAD_CAT_ID":58046,"ELEMENT_SET_NO":999,"REV_AT_EPOCH":3876,"BSTAR":-2.0601e-6,"MEAN_MOTION_DOT":-3.07e-6,"MEAN_MOTION_DDOT":0},{"OBJECT_NAME":"STARLINK-30529","OBJECT_ID":"2023-156V","EPOCH":"2024-06-12T10:17:51.686880","MEAN_MOTION":15.04925769,"ECCENTRICITY":0.0001517,"INCLINATION":53.1629,"RA_OF_ASC_NODE":168.7816,"ARG_OF_PERICENTER":88.2203,"MEAN_ANOMALY":271.8961,"EPHEMERIS_TYPE":0,"CLASSIFICATION_TYPE":"U","NORAD_CAT_ID":58047,"ELEMENT_SET_NO":999,"REV_AT_EPOCH":3872,"BSTAR":1.5281e-5,"MEAN_MOTION_DOT":-5.9e-7,"MEAN_MOTION_DDOT":0},{"OBJECT_NAME":"STARLINK-30554","OBJECT_ID":"2023-156W","EPOCH":"2024-06-12T10:13:14.043936","MEAN_MOTION":15.04932952,"ECCENTRICITY":0.000146,"INCLINATION":53.1632,"RA_OF_ASC_NODE":168.7697,"ARG_OF_PERICENTER":94.3654,"MEAN_ANOMALY":265.7502,"EPHEMERIS_TYPE":0,"CLASSIFICATION_TYPE":"U","NORAD_CAT_ID":58048,"ELEMENT_SET_NO":999,"REV_AT_EPOCH":3872,"BSTAR":-3.818e-5,"MEAN_MOTION_DOT":-8.24e-6,"MEAN_MOTION_DDOT":0},{"OBJECT_NAME":"STARLINK-30568","OBJECT_ID":"2023-158A","EPOCH":"2024-06-12T06:22:19.625088","MEAN_MOTION":15.02537595,"ECCENTRICITY":0.0001087,"INCLINATION":43.0043,"RA_OF_ASC_NODE":243.3411,"ARG_OF_PERICENTER":273.2902,"MEAN_ANOMALY":86.7816,"EPHEMERIS_TYPE":0,"CLASSIFICATION_TYPE":"U","NORAD_CAT_ID":58051,"ELEMENT_SET_NO":999,"REV_AT_EPOCH":3794,"BSTAR":3.5043e-5,"MEAN_MOTION_DOT":2.7e-6,"MEAN_MOTION_DDOT":0},{"OBJECT_NAME":"STARLINK-30575","OBJECT_ID":"2023-158B","EPOCH":"2024-06-12T06:31:55.129440","MEAN_MOTION":15.02532989,"ECCENTRICITY":0.0001055,"INCLINATION":43.0013,"RA_OF_ASC_NODE":243.396,"ARG_OF_PERICENTER":279.8581,"MEAN_ANOMALY":80.2142,"EPHEMERIS_TYPE":0,"CLASSIFICATION_TYPE":"U","NORAD_CAT_ID":58052,"ELEMENT_SET_NO":999,"REV_AT_EPOCH":3794,"BSTAR":-2.6022e-5,"MEAN_MOTION_DOT":-5.55e-6,"MEAN_MOTION_DDOT":0},{"OBJECT_NAME":"STARLINK-30577","OBJECT_ID":"2023-158C","EPOCH":"2024-06-12T06:17:31.679808","MEAN_MOTION":15.02539223,"ECCENTRICITY":0.0001206,"INCLINATION":43.0024,"RA_OF_ASC_NODE":243.2972,"ARG_OF_PERICENTER":278.2324,"MEAN_ANOMALY":81.8382,"EPHEMERIS_TYPE":0,"CLASSIFICATION_TYPE":"U","NORAD_CAT_ID":58053,"ELEMENT_SET_NO":999,"REV_AT_EPOCH":3794,"BSTAR":-2.751e-5,"MEAN_MOTION_DOT":-5.75e-6,"MEAN_MOTION_DDOT":0},{"OBJECT_NAME":"STARLINK-30566","OBJECT_ID":"2023-158D","EPOCH":"2024-06-12T12:30:51.439680","MEAN_MOTION":15.02501988,"ECCENTRICITY":0.0001806,"INCLINATION":43.0021,"RA_OF_ASC_NODE":241.8259,"ARG_OF_PERICENTER":290.1714,"MEAN_ANOMALY":69.8934,"EPHEMERIS_TYPE":0,"CLASSIFICATION_TYPE":"U","NORAD_CAT_ID":58054,"ELEMENT_SET_NO":999,"REV_AT_EPOCH":3798,"BSTAR":-0.0045929,"MEAN_MOTION_DOT":-0.0006165,"MEAN_MOTION_DDOT":0},{"OBJECT_NAME":"STARLINK-30544","OBJECT_ID":"2023-158E","EPOCH":"2024-06-12T16:54:03.920256","MEAN_MOTION":15.02533219,"ECCENTRICITY":0.0001251,"INCLINATION":43.0028,"RA_OF_ASC_NODE":240.6139,"ARG_OF_PERICENTER":265.2625,"MEAN_ANOMALY":94.8074,"EPHEMERIS_TYPE":0,"CLASSIFICATION_TYPE":"U","NORAD_CAT_ID":58055,"ELEMENT_SET_NO":999,"REV_AT_EPOCH":3801,"BSTAR":-1.7457e-5,"MEAN_MOTION_DOT":-4.39e-6,"MEAN_MOTION_DDOT":0},{"OBJECT_NAME":"STARLINK-30553","OBJECT_ID":"2023-158F","EPOCH":"2024-06-12T17:08:26.650176","MEAN_MOTION":15.02552636,"ECCENTRICITY":0.0001469,"INCLINATION":43.0015,"RA_OF_ASC_NODE":240.6881,"ARG_OF_PERICENTER":270.2704,"MEAN_ANOMALY":89.797,"EPHEMERIS_TYPE":0,"CLASSIFICATION_TYPE":"U","NORAD_CAT_ID":58056,"ELEMENT_SET_NO":999,"REV_AT_EPOCH":3801,"BSTAR":-0.0004063,"MEAN_MOTION_DOT":-5.69e-5,"MEAN_MOTION_DDOT":0},{"OBJECT_NAME":"STARLINK-30541","OBJECT_ID":"2023-158G","EPOCH":"2024-06-12T17:13:14.947968","MEAN_MOTION":15.02532756,"ECCENTRICITY":0.0001041,"INCLINATION":43.0001,"RA_OF_ASC_NODE":240.7158,"ARG_OF_PERICENTER":263.064,"MEAN_ANOMALY":97.0084,"EPHEMERIS_TYPE":0,"CLASSIFICATION_TYPE":"U","NORAD_CAT_ID":58057,"ELEMENT_SET_NO":999,"REV_AT_EPOCH":3801,"BSTAR":-3.7462e-5,"MEAN_MOTION_DOT":-7.09e-6,"MEAN_MOTION_DDOT":0},{"OBJECT_NAME":"STARLINK-30573","OBJECT_ID":"2023-158H","EPOCH":"2024-06-13T05:49:28.688160","MEAN_MOTION":15.02563583,"ECCENTRICITY":0.0001234,"INCLINATION":43.002,"RA_OF_ASC_NODE":237.774,"ARG_OF_PERICENTER":276.3811,"MEAN_ANOMALY":83.6891,"EPHEMERIS_TYPE":0,"CLASSIFICATION_TYPE":"U","NORAD_CAT_ID":58058,"ELEMENT_SET_NO":999,"REV_AT_EPOCH":3809,"BSTAR":0.00056401,"MEAN_MOTION_DOT":7.429e-5,"MEAN_MOTION_DDOT":0},{"OBJECT_NAME":"STARLINK-30582","OBJECT_ID":"2023-158J","EPOCH":"2024-06-12T07:14:53.870496","MEAN_MOTION":15.0254384,"ECCENTRICITY":0.0001486,"INCLINATION":43.003,"RA_OF_ASC_NODE":242.7597,"ARG_OF_PERICENTER":275.851,"MEAN_ANOMALY":84.2163,"EPHEMERIS_TYPE":0,"CLASSIFICATION_TYPE":"U","NORAD_CAT_ID":58059,"ELEMENT_SET_NO":999,"REV_AT_EPOCH":3795,"BSTAR":1.3573e-5,"MEAN_MOTION_DOT":-2.0e-7,"MEAN_MOTION_DDOT":0},{"OBJECT_NAME":"STARLINK-30558","OBJECT_ID":"2023-158K","EPOCH":"2024-06-13T04:56:54.053088","MEAN_MOTION":15.02537604,"ECCENTRICITY":0.0001404,"INCLINATION":43.0017,"RA_OF_ASC_NODE":238.3448,"ARG_OF_PERICENTER":262.8175,"MEAN_ANOMALY":97.2507,"EPHEMERIS_TYPE":0,"CLASSIFICATION_TYPE":"U","NORAD_CAT_ID":58060,"ELEMENT_SET_NO":999,"REV_AT_EPOCH":3808,"BSTAR":8.7405e-5,"MEAN_MOTION_DOT":9.77e-6,"MEAN_MOTION_DDOT":0}]
